{"type":"FeatureCollection","features":[{"type":"Feature","geometry":{"type":"MultiLineString","coordinates":[[[-63.171961,-17.790538],[-63.171593,-17.790082],[-63.171426,-17.789767],[-63.171304,-17.789412],[-63.171281,-17.789247],[-63.171243,-17.788894],[-63.171263,-17.788396],[-63.171544,-17.786533],[-63.171692,-17.785598],[-63.171642,-17.785512],[-63.171724,-17.785379],[-63.171805,-17.78482],[-63.171938,-17.78405],[-63.172048,-17.783386],[-63.172068,-17.783122],[-63.172134,-17.782797],[-63.172419,-17.780853],[-63.172613,-17.779491],[-63.172629,-17.779395],[-63.172868,-17.778348],[-63.172884,-17.778226],[-63.172865,-17.778194],[-63.172852,-17.778152],[-63.172855,-17.778113],[-63.172865,-17.778073],[-63.172885,-17.778037],[-63.172915,-17.778007],[-63.172947,-17.777988],[-63.17303,-17.777656],[-63.173198,-17.777112],[-63.173472,-17.776589],[-63.173664,-17.776339],[-63.173973,-17.776026],[-63.174367,-17.775679],[-63.174555,-17.775547],[-63.174562,-17.775495],[-63.174584,-17.775443],[-63.174616,-17.775406],[-63.174677,-17.775365],[-63.17471,-17.775335],[-63.174779,-17.775327],[-63.174832,-17.775336],[-63.17489,-17.775355],[-63.175091,-17.775257],[-63.175283,-17.775174],[-63.175799,-17.774989],[-63.176304,-17.774832],[-63.17712,-17.774646],[-63.177918,-17.774512],[-63.178562,-17.77448],[-63.179306,-17.774472],[-63.179944,-17.774486],[-63.180881,-17.774527],[-63.182142,-17.774764],[-63.182293,-17.774797],[-63.183341,-17.775119],[-63.184569,-17.77551],[-63.185461,-17.775785],[-63.186019,-17.775963],[-63.186485,-17.776201],[-63.186935,-17.776521],[-63.187326,-17.776831],[-63.187572,-17.777081],[-63.187896,-17.777475],[-63.188154,-17.777854],[-63.188345,-17.778202],[-63.188421,-17.778362],[-63.188667,-17.779054],[-63.188844,-17.779681],[-63.188942,-17.780266],[-63.188976,-17.780585],[-63.189019,-17.781231],[-63.188998,-17.782197],[-63.189007,-17.783219],[-63.189005,-17.783974],[-63.18905,-17.784292],[-63.189072,-17.784319],[-63.189096,-17.784377],[-63.189099,-17.784441],[-63.18908,-17.784502],[-63.189041,-17.784554],[-63.189023,-17.78457],[-63.18898,-17.785521],[-63.188881,-17.786068],[-63.188772,-17.786459],[-63.188586,-17.786986],[-63.18779,-17.789085],[-63.187719,-17.789356],[-63.187723,-17.7894],[-63.187715,-17.789441],[-63.187696,-17.789478],[-63.187668,-17.789508],[-63.187633,-17.789529],[-63.187563,-17.789735],[-63.187431,-17.79064],[-63.187379,-17.791013],[-63.187168,-17.79268],[-63.187131,-17.792998],[-63.187102,-17.793124],[-63.187138,-17.793159],[-63.187171,-17.793205],[-63.187191,-17.793274],[-63.187186,-17.793335],[-63.187161,-17.793397],[-63.187121,-17.793443],[-63.187076,-17.793474],[-63.187025,-17.793492],[-63.186957,-17.793494],[-63.186889,-17.793479],[-63.186835,-17.793448],[-63.186803,-17.793408],[-63.186775,-17.793363],[-63.186447,-17.793313],[-63.185748,-17.7932],[-63.18434,-17.792993],[-63.183487,-17.792854],[-63.182604,-17.792707],[-63.181384,-17.792498],[-63.180515,-17.792351],[-63.179539,-17.792195],[-63.177834,-17.791927],[-63.177807,-17.791943],[-63.177775,-17.791951],[-63.17774,-17.79195],[-63.177708,-17.791937],[-63.177681,-17.791913],[-63.177665,-17.791888],[-63.176633,-17.791722],[-63.175771,-17.791586],[-63.174389,-17.791358],[-63.173742,-17.791249],[-63.173628,-17.791247],[-63.173397,-17.791324],[-63.173386,-17.791507],[-63.173362,-17.791538],[-63.173303,-17.79159],[-63.173226,-17.791627],[-63.173117,-17.791622],[-63.172984,-17.79161],[-63.172855,-17.791491],[-63.17282,-17.791396],[-63.17282,-17.791298],[-63.172133,-17.790694],[-63.171948,-17.790527]]]},"properties":{"objectid":272,"nombre":"18","sentido":2,"origen":0,"medio":11,"destino":0,"desdoble":0,"sindicato":1,"parque_a":27}},{"type":"Feature","geometry":{"type":"MultiLineString","coordinates":[[[-63.172393,-17.79062],[-63.172047,-17.790302],[-63.171772,-17.789927],[-63.171579,-17.789506],[-63.17147,-17.789017],[-63.17146,-17.788892],[-63.171514,-17.788354],[-63.171766,-17.786564],[-63.171923,-17.785638],[-63.171967,-17.785602],[-63.171994,-17.785481],[-63.171953,-17.785412],[-63.172025,-17.784862],[-63.172145,-17.784071],[-63.172234,-17.783413],[-63.172291,-17.783153],[-63.172334,-17.783129],[-63.17237,-17.783095],[-63.172394,-17.783052],[-63.172408,-17.783006],[-63.172406,-17.782944],[-63.172387,-17.782888],[-63.172349,-17.78284],[-63.172619,-17.780875],[-63.172826,-17.779529],[-63.172838,-17.779427],[-63.173094,-17.778277],[-63.173131,-17.778254],[-63.173161,-17.77822],[-63.173178,-17.778182],[-63.173188,-17.778138],[-63.173182,-17.778094],[-63.173165,-17.778051],[-63.173165,-17.777926],[-63.173197,-17.777744],[-63.173379,-17.777229],[-63.173711,-17.776628],[-63.174,-17.776287],[-63.174201,-17.776085],[-63.174683,-17.775729],[-63.17475,-17.775745],[-63.17482,-17.775737],[-63.174883,-17.77571],[-63.174934,-17.775664],[-63.174961,-17.775615],[-63.174975,-17.775562],[-63.17514,-17.775461],[-63.175363,-17.775372],[-63.175555,-17.775289],[-63.176071,-17.775104],[-63.176508,-17.774982],[-63.177483,-17.774773],[-63.178109,-17.77469],[-63.178793,-17.774662],[-63.179715,-17.774682],[-63.180953,-17.774734],[-63.181701,-17.774848],[-63.182125,-17.774947],[-63.182436,-17.775028],[-63.183373,-17.775341],[-63.184938,-17.775808],[-63.18583,-17.776084],[-63.186107,-17.776264],[-63.18672,-17.776534],[-63.187111,-17.776844],[-63.187358,-17.777094],[-63.187681,-17.777488],[-63.18794,-17.777867],[-63.188131,-17.778215],[-63.188207,-17.778375],[-63.188453,-17.779067],[-63.188617,-17.779742],[-63.188742,-17.780612],[-63.188805,-17.781244],[-63.188784,-17.782211],[-63.188792,-17.783232],[-63.1888,-17.784083],[-63.18879,-17.78418],[-63.188762,-17.784275],[-63.18873,-17.784304],[-63.188706,-17.784346],[-63.188696,-17.784392],[-63.188693,-17.784436],[-63.188706,-17.784485],[-63.188726,-17.784524],[-63.188757,-17.784556],[-63.188801,-17.784588],[-63.188751,-17.785497],[-63.188736,-17.785616],[-63.188639,-17.786162],[-63.188385,-17.786921],[-63.187739,-17.788624],[-63.18754,-17.78918],[-63.18743,-17.789312],[-63.187412,-17.789356],[-63.187406,-17.789409],[-63.187419,-17.789457],[-63.187367,-17.789648],[-63.187059,-17.791649],[-63.186889,-17.793014],[-63.18686,-17.793124],[-63.186794,-17.793185],[-63.186519,-17.793187],[-63.185619,-17.793067],[-63.184211,-17.79286],[-63.183358,-17.792721],[-63.182475,-17.792575],[-63.181255,-17.792365],[-63.180386,-17.792219],[-63.179466,-17.792076],[-63.177868,-17.791822],[-63.177592,-17.791778],[-63.176583,-17.7916],[-63.175722,-17.791465],[-63.17434,-17.791236],[-63.173276,-17.791069],[-63.173059,-17.791022],[-63.172774,-17.790886],[-63.172393,-17.790623]]]},"properties":{"objectid":271,"nombre":"18","sentido":1,"origen":0,"medio":11,"destino":0,"desdoble":0,"sindicato":1,"parque_a":27}}]}